[{"OBJECT_NAME":"IRIDIUM 134","OBJECT_ID":"2017-083F","EPOCH":"2026-03-09T21:58:07.186944","MEAN_MOTION":14.34217743,"ECCENTRICITY":0.00020775,"INCLINATION":86.4026,"RA_OF_ASC_NODE":3.549,"ARG_OF_PERICENTER":86.3687,"MEAN_ANOMALY":273.7747,"EPHEMERIS_TYPE":0,"CLASSIFICATION_TYPE":"U","NORAD_CAT_ID":43075,"ELEMENT_SET_NO":999,"REV_AT_EPOCH":42987,"BSTAR":2.4162884e-5,"MEAN_MOTION_DOT":8.7e-7,"MEAN_MOTION_DDOT":0},{"OBJECT_NAME":"CZ-4 DEB","OBJECT_ID":"1990-081DB","EPOCH":"2026-03-05T22:36:00.561024","MEAN_MOTION":14.34624964,"ECCENTRICITY":0.00148237,"INCLINATION":98.5419,"RA_OF_ASC_NODE":65.486,"ARG_OF_PERICENTER":198.3015,"MEAN_ANOMALY":161.7638,"EPHEMERIS_TYPE":0,"CLASSIFICATION_TYPE":"U","NORAD_CAT_ID":37615,"ELEMENT_SET_NO":999,"REV_AT_EPOCH":60990,"BSTAR":0.0005969492,"MEAN_MOTION_DOT":1.646e-5,"MEAN_MOTION_DDOT":0}]
